STARLINK-35463          
1 66463U 25262H   25338.16670139 -.02162455  00000+0 -33326-1 0  9990
2 66463  42.9996 121.2602 0001737 271.9188  45.4436 15.56644423  4262
STARLINK-35435          
1 66464U 25262J   25338.16670139 -.02170312  00000+0 -33454-1 0  9994
2 66464  42.9995 121.2652 0001692 268.7505  46.6911 15.56651298  4263
STARLINK-35448          
1 66465U 25262K   25338.16670139 -.02170679  00000+0 -33461-1 0  9999
2 66465  42.9997 121.2510 0001595 266.6151  54.5789 15.56651520  4264
STARLINK-35388          
1 66466U 25262L   25338.16670139 -.02169072  00000+0 -33433-1 0  9994
2 66466  42.9997 121.2450 0001758 268.0838  55.0264 15.56650468  4261
STARLINK-35682          
1 66467U 25262M   25338.16670139 -.02168785  00000+0 -33430-1 0  9992
2 66467  42.9996 121.2559 0001698 262.9423  56.3362 15.56649381  4262
STARLINK-35331          
1 66468U 25262N   25338.16670139 -.02166520  00000+0 -33391-1 0  9994
2 66468  42.9995 121.2412 0001729 272.5147  52.5124 15.56648660  4268
STARLINK-35451          
1 66469U 25262P   25338.16670139 -.02170100  00000+0 -33451-1 0  9991
2 66469  42.9995 121.2258 0001621 272.8800  57.8967 15.56651845  4269
STARLINK-35655          
1 66470U 25262Q   25338.16670139 -.02166418  00000+0 -33389-1 0  9990
2 66470  42.9995 121.2366 0001767 272.7986  54.1451 15.56648745  4269
STARLINK-35569          
1 66471U 25262R   25338.16670139 -.02169206  00000+0 -33436-1 0  9992
2 66471  42.9995 121.2310 0001691 268.5766  60.2858 15.56650236  4261
STARLINK-35567          
1 66472U 25262S   25338.16670139 -.02170748  00000+0 -33461-1 0  9994
2 66472  42.9996 121.2212 0001706 269.8745  62.8203 15.56652066  4267
STARLINK-35568          
1 66473U 25262T   25338.16670139 -.02167764  00000+0 -33411-1 0  9994
2 66473  42.9995 121.2163 0001698 271.0409  63.5717 15.56649916  4262
STARLINK-35620          
1 66474U 25262U   25338.16670139 -.02171642  00000+0 -33477-1 0  9997
2 66474  42.9994 121.2111 0001619 267.1718  69.3587 15.56652203  4269
